{"spkid": "50825540", "covariance": {"labels": ["e", "q", "tp", "node", "peri", "i"], "elements": [{"name": "e", "sigma": 2.89040412917263e-07, "value": ".1941609324071248", "title": "eccentricity", "units": null, "label": "e"}, {"sigma": 3.15125770115687e-07, "name": "q", "title": "perihelion distance", "value": ".7821538060520307", "units": "au", "label": "q"}, {"label": "tp", "name": "tp", "sigma": 2.71117190267828e-05, "title": "time of perihelion passage", "value": "2458546.218201303195", "units": "TDB"}, {"sigma": 5.87053654976301e-05, "name": "om", "title": "longitude of the ascending node", "value": "244.9558761344007", "units": "deg", "label": "node"}, {"name": "w", "sigma": 4.73283382000054e-05, "title": "argument of perihelion", "value": "266.4400498638742", "units": "deg", "label": "peri"}, {"label": "i", "units": "deg", "title": "inclination", "value": "9.302486055306622", "sigma": 1.15933779513137e-05, "name": "i"}], "data": [["8.354436029938174E-14", "-9.107618060297868E-14", "6.599257604284101E-12", "1.022646170879396E-11", "-7.984892458913364E-12", "3.094859529737816E-12"], ["-9.107618060297868E-14", "9.930425099100512E-14", "-7.163917515974816E-12", "-1.10118597055315E-11", "8.591737795325224E-12", "-3.365993218314199E-12"], ["6.599257604284101E-12", "-7.163917515974816E-12", "7.350453085872149E-10", "1.324117117373349E-9", "-9.610558358965266E-10", "2.443509148729592E-10"], ["1.022646170879396E-11", "-1.10118597055315E-11", "1.324117117373349E-9", "3.446319938210333E-9", "-2.730668231035367E-9", "4.379535940287027E-10"], ["-7.984892458913364E-12", "8.591737795325224E-12", "-9.610558358965266E-10", "-2.730668231035367E-9", "2.239971596774095E-9", "-3.584038387998296E-10"], ["3.094859529737816E-12", "-3.365993218314199E-12", "2.443509148729592E-10", "4.379535940287027E-10", "-3.584038387998296E-10", "1.344064123220074E-10"]], "epoch": "2458490.5"}, "elements": [{"label": "e", "name": "e", "sigma": "2.8914E-7", "units": null, "title": "eccentricity", "value": ".1940585022438932"}, {"label": "a", "sigma": "4.5053E-8", "name": "a", "units": "au", "title": "semi-major axis", "value": ".9707748963734262"}, {"label": "q", "value": ".7823877739672285", "title": "perihelion distance", "units": "au", "sigma": "3.168E-7", "name": "q"}, {"label": "i", "sigma": "1.1528E-5", "name": "i", "units": "deg", "value": "9.315599739610642", "title": "inclination; angle with respect to x-y ecliptic plane"}, {"name": "om", "sigma": "5.8902E-5", "units": "deg", "title": "longitude of the ascending node", "value": "244.8048001077638", "label": "node"}, {"label": "peri", "units": "deg", "title": "argument of perihelion", "value": "266.3811342932029", "sigma": "4.6232E-5", "name": "w"}, {"title": "mean anomaly", "value": "215.7190150107526", "units": "deg", "sigma": ".00016435", "name": "ma", "label": "M"}, {"label": "tp", "units": "TDB", "title": "time of perihelion passage", "value": "2461340.517664869172", "name": "tp", "sigma": ".00016919"}, {"label": "period", "name": "per", "sigma": "2.4321E-5", "title": "sidereal orbital period", "value": "349.3624565749844", "units": "d"}, {"label": "n", "name": "n", "sigma": "7.1734E-8", "units": "deg/d", "value": "1.030448444659171", "title": "mean motion"}, {"label": "Q", "value": "1.159162018779624", "title": "aphelion distance", "units": "au", "name": "ad", "sigma": "5.3796E-8"}], "epoch": "2461200.5"}